HORIZONS-3E             
1 43633U 18074B   24267.55572831 -.00000042  00000+0  00000+0 0  9991
2 43633   0.0187 259.3697 0000955  14.6492  97.9645  1.00271587 22008
AEHF-4 (USA 288)        
1 43651U 18079A   24267.51346028 -.00000286  00000+0  00000+0 0  9999
2 43651   1.6528 333.5474 0052178   9.9155 136.6853  1.00274023 21963
BEIDOU-3 G1             
1 43683U 18085A   24267.55464156 -.00000290  00000+0  00000+0 0  9993
2 43683   2.4299 105.9601 0002239  36.3828 200.2525  1.00270109 21728
GSAT-29                 
1 43698U 18089A   24267.46619736  .00000072  00000+0  00000+0 0  9996
2 43698   0.0297 245.6721 0002085 318.4292  21.6230  1.00275735 21457
ES'HAIL 2               
1 43700U 18090A   24267.60338147  .00000132  00000+0  00000+0 0  9999
2 43700   0.0172 171.9584 0001166  36.6106  37.3599  1.00272673 21341
GEO-KOMPSAT-2A          
1 43823U 18100A   24267.55203515 -.00000356  00000+0  00000+0 0  9990
2 43823   0.0449  17.3326 0001526 112.3291 200.2311  1.00273159 21295
GSAT-11                 
1 43824U 18100B   24267.53452105 -.00000089  00000+0  00000+0 0  9993
2 43824   0.0411 249.4653 0005337 235.3410 144.4798  1.00270882 21152
GSAT-7A                 
1 43864U 18105A   24267.53926375  .00000014  00000+0  00000+0 0  9994
2 43864   0.0490 274.6519 0001976 282.9595  62.1730  1.00271336 21114
COSMOS 2533             
1 43867U 18107A   24267.61224325 -.00000051  00000+0  00000+0 0  9996
2 43867   0.0194 108.3420 0000592 141.1016  43.9243  1.00272445 21106
TJS-3                   
1 43874U 18110A   24267.74754779 -.00000010  00000+0  00000+0 0  9998
2 43874   0.9052  87.8598 0004714 137.5445 219.7518  1.00272322 21155
ZHONGXING-2D            
1 43920U 19001A   24267.55264331 -.00000349  00000+0  00000+0 0  9994
2 43920   0.0425 355.0913 0003381 259.2525  77.5031  1.00273095 47744
HELLAS-SAT 4 & SGS-1    
1 44034U 19007A   24267.46298278  .00000140  00000+0  00000+0 0  9992
2 44034   0.0652 128.0358 0006091  35.8790  44.5477  1.00270471 21023
GSAT-31                 
1 44035U 19007B   24267.53630981  .00000113  00000+0  00000+0 0  9992
2 44035   0.0141 233.9917 0005116   1.7760   8.0407  1.00273730 20635
NUSANTARA SATU          
1 44048U 19009A   24266.91223267 -.00000245  00000+0  00000+0 0  9991
2 44048   0.0265 136.2248 0004175  18.6689 321.7731  1.00271623 20431
ZHONGXING-6C            
1 44067U 19012A   24267.55273021 -.00000348  00000+0  00000+0 0  9994
2 44067   0.0302  93.7301 0003594 340.6330 257.9337  1.00270173 20404
WGS 10 (USA 291)        
1 44071U 19014A   24267.61033189  .00000034  00000+0  00000+0 0  9998
2 44071   0.0125 180.6289 0000577  56.6419  45.7171  1.00270507 20290
TIANLIAN 2-01           
1 44076U 19017A   24267.54213080 -.00000119  00000+0  00000+0 0  9993
2 44076   0.0661 253.3639 0001600 312.5407  69.1917  1.00271300 20319
ARABSAT-6A              
1 44186U 19021A   24267.10380385  .00000142  00000+0  00000+0 0  9990
2 44186   0.0601 347.0149 0006915 252.4071 190.8985  1.00265819 19813
BEIDOU-3 IGSO-1         
1 44204U 19023A   24267.08979934 -.00000215  00000+0  00000+0 0  9996
2 44204  57.7920  44.2015 0024121 205.8638 264.2456  1.00271741   871
BEIDOU-2 G8             
1 44231U 19027A   24267.55882448 -.00000261  00000+0  00000+0 0  9996
2 44231   1.7170  74.3978 0003960 182.8090  91.2605  1.00266457 19741
YAMAL 601               
1 44307U 19031A   24267.53657045  .00000108  00000+0  00000+0 0  9995
2 44307   0.0183 169.7717 0002288  15.3447  59.9204  1.00271050 19582
AT&T T-16               
1 44333U 19034A   24267.57827303 -.00000127  00000+0  00000+0 0  9999
2 44333   0.0150 240.5750 0000300 181.1386  48.5218  1.00269331 19305
EUTELSAT 7C             
1 44334U 19034B   24267.39493868  .00000036  00000+0  00000+0 0  9993
2 44334   0.0671 191.3771 0003096 341.1700 339.3586  1.00270225   508
BEIDOU-3 IGSO-2         
1 44337U 19035A   24267.49346233 -.00000150  00000+0  00000+0 0  9999
2 44337  55.1817 164.4086 0034757 202.6620 292.3005  1.00266476 19332
COSMOS 2539             
1 44457U 19048A   24267.60068817  .00000068  00000+0  00000+0 0  9995
2 44457   0.0140 143.4506 0000105 275.5283 172.2028  1.00268572 18891
EDRS-C                  
1 44475U 19049A   24266.90717337  .00000143  00000+0  00000+0 0  9990
2 44475   0.0894 253.9355 0000850 275.2138 190.8633  1.00270566 18871
INTELSAT 39 (IS-39)     
1 44476U 19049B   24267.61059253  .00000021  00000+0  00000+0 0  9991
2 44476   0.0177 204.6171 0000222 343.9607  96.1278  1.00270685 18800
AMOS-17                 
1 44479U 19050A   24267.60164385  .00000097  00000+0  00000+0 0  9991
2 44479   0.0128 113.6176 0002142  84.9285  37.9695  1.00272108 18853
AEHF-5 (USA 292)        
1 44481U 19051A   24267.54438969 -.00000266  00000+0  00000+0 0  9999
2 44481   2.5145 308.9169 0043449  10.4556 328.3155  1.00428139 18926
EUTELSAT 5 WEST B       
1 44624U 19067A   24267.38729899 -.00000053  00000+0  00000+0 0  9996
2 44624   0.0660 344.9267 0003197 206.4866 305.7728  1.00273167 18111
MEV-1                   
1 44625U 19067B   24267.39841065 -.00000214  00000+0  00000+0 0  9997
2 44625   0.0175 121.6624 0001059 142.9833 214.0343  1.00272718 18041
TJS-4                   
1 44637U 19070A   24267.61484966 -.00000181  00000+0  00000+0 0  9995
2 44637   0.0416 104.3676 0004786 208.7217 354.6733  1.00269041 18201
