OBJECT_NAME,OBJECT_ID,EPOCH,MEAN_MOTION,ECCENTRICITY,INCLINATION,RA_OF_ASC_NODE,ARG_OF_PERICENTER,MEAN_ANOMALY,EPHEMERIS_TYPE,CLASSIFICATION_TYPE,NORAD_CAT_ID,ELEMENT_SET_NO,REV_AT_EPOCH,BSTAR,MEAN_MOTION_DOT,MEAN_MOTION_DDOT
HORIZONS-3E,2018-074B,2024-09-23T13:20:14.925984,1.00271587,.0000955,0.0187,259.3697,14.6492,97.9645,0,U,43633,999,2200,0,-.42E-6,0
AEHF-4 (USA 288),2018-079A,2024-09-23T12:19:22.968192,1.00274023,.0052178,1.6528,333.5474,9.9155,136.6853,0,U,43651,999,2196,0,-.286E-5,0
BEIDOU-3 G1,2018-085A,2024-09-23T13:18:41.030784,1.00270109,.0002239,2.4299,105.9601,36.3828,200.2525,0,U,43683,999,2172,0,-.29E-5,0
GSAT-29,2018-089A,2024-09-23T11:11:19.451904,1.00275735,.0002085,0.0297,245.6721,318.4292,21.6230,0,U,43698,999,2145,0,.72E-6,0
ES'HAIL 2,2018-090A,2024-09-23T14:28:52.159008,1.00272673,.0001166,0.0172,171.9584,36.6106,37.3599,0,U,43700,999,2134,0,.132E-5,0
GEO-KOMPSAT-2A,2018-100A,2024-09-23T13:14:55.836960,1.00273159,.0001526,0.0449,17.3326,112.3291,200.2311,0,U,43823,999,2129,0,-.356E-5,0
GSAT-11,2018-100B,2024-09-23T12:49:42.618720,1.00270882,.0005337,0.0411,249.4653,235.3410,144.4798,0,U,43824,999,2115,0,-.89E-6,0
GSAT-7A,2018-105A,2024-09-23T12:56:32.388000,1.00271336,.0001976,0.0490,274.6519,282.9595,62.1730,0,U,43864,999,2111,0,.14E-6,0
COSMOS 2533,2018-107A,2024-09-23T14:41:37.816800,1.00272445,.0000592,0.0194,108.3420,141.1016,43.9243,0,U,43867,999,2110,0,-.51E-6,0
TJS-3,2018-110A,2024-09-23T17:56:28.129056,1.00272322,.0004714,0.9052,87.8598,137.5445,219.7518,0,U,43874,999,2115,0,-.1E-6,0
ZHONGXING-2D,2019-001A,2024-09-23T13:15:48.381984,1.00273095,.0003381,0.0425,355.0913,259.2525,77.5031,0,U,43920,999,4774,0,-.349E-5,0
HELLAS-SAT 4 & SGS-1,2019-007A,2024-09-23T11:06:41.712192,1.00270471,.0006091,0.0652,128.0358,35.8790,44.5477,0,U,44034,999,2102,0,.14E-5,0
GSAT-31,2019-007B,2024-09-23T12:52:17.167584,1.00273730,.0005116,0.0141,233.9917,1.7760,8.0407,0,U,44035,999,2063,0,.113E-5,0
NUSANTARA SATU,2019-009A,2024-09-22T21:53:36.902688,1.00271623,.0004175,0.0265,136.2248,18.6689,321.7731,0,U,44048,999,2043,0,-.245E-5,0
ZHONGXING-6C,2019-012A,2024-09-23T13:15:55.890144,1.00270173,.0003594,0.0302,93.7301,340.6330,257.9337,0,U,44067,999,2040,0,-.348E-5,0
WGS 10 (USA 291),2019-014A,2024-09-23T14:38:52.675296,1.00270507,.0000577,0.0125,180.6289,56.6419,45.7171,0,U,44071,999,2029,0,.34E-6,0
TIANLIAN 2-01,2019-017A,2024-09-23T13:00:40.101120,1.00271300,.00016,0.0661,253.3639,312.5407,69.1917,0,U,44076,999,2031,0,-.119E-5,0
ARABSAT-6A,2019-021A,2024-09-23T02:29:28.652640,1.00265819,.0006915,0.0601,347.0149,252.4071,190.8985,0,U,44186,999,1981,0,.142E-5,0
BEIDOU-3 IGSO-1,2019-023A,2024-09-23T02:09:18.662976,1.00271741,.0024121,57.7920,44.2015,205.8638,264.2456,0,U,44204,999,87,0,-.215E-5,0
BEIDOU-2 G8,2019-027A,2024-09-23T13:24:42.435072,1.00266457,.000396,1.7170,74.3978,182.8090,91.2605,0,U,44231,999,1974,0,-.261E-5,0
YAMAL 601,2019-031A,2024-09-23T12:52:39.686880,1.00271050,.0002288,0.0183,169.7717,15.3447,59.9204,0,U,44307,999,1958,0,.108E-5,0
AT&T T-16,2019-034A,2024-09-23T13:52:42.789792,1.00269331,.00003,0.0150,240.5750,181.1386,48.5218,0,U,44333,999,1930,0,-.127E-5,0
EUTELSAT 7C,2019-034B,2024-09-23T09:28:42.701952,1.00270225,.0003096,0.0671,191.3771,341.1700,339.3586,0,U,44334,999,50,0,.36E-6,0
BEIDOU-3 IGSO-2,2019-035A,2024-09-23T11:50:35.145312,1.00266476,.0034757,55.1817,164.4086,202.6620,292.3005,0,U,44337,999,1933,0,-.15E-5,0
COSMOS 2539,2019-048A,2024-09-23T14:24:59.457888,1.00268572,.0000105,0.0140,143.4506,275.5283,172.2028,0,U,44457,999,1889,0,.68E-6,0
EDRS-C,2019-049A,2024-09-22T21:46:19.779168,1.00270566,.000085,0.0894,253.9355,275.2138,190.8633,0,U,44475,999,1887,0,.143E-5,0
INTELSAT 39 (IS-39),2019-049B,2024-09-23T14:39:15.194592,1.00270685,.0000222,0.0177,204.6171,343.9607,96.1278,0,U,44476,999,1880,0,.21E-6,0
AMOS-17,2019-050A,2024-09-23T14:26:22.028640,1.00272108,.0002142,0.0128,113.6176,84.9285,37.9695,0,U,44479,999,1885,0,.97E-6,0
AEHF-5 (USA 292),2019-051A,2024-09-23T13:03:55.269216,1.00428139,.0043449,2.5145,308.9169,10.4556,328.3155,0,U,44481,999,1892,0,-.266E-5,0
EUTELSAT 5 WEST B,2019-067A,2024-09-23T09:17:42.632736,1.00273167,.0003197,0.0660,344.9267,206.4866,305.7728,0,U,44624,999,1811,0,-.53E-6,0
MEV-1,2019-067B,2024-09-23T09:33:42.680160,1.00272718,.0001059,0.0175,121.6624,142.9833,214.0343,0,U,44625,999,1804,0,-.214E-5,0
TJS-4,2019-070A,2024-09-23T14:45:23.010624,1.00269041,.0004786,0.0416,104.3676,208.7217,354.6733,0,U,44637,999,1820,0,-.181E-5,0
